Skip Page Navigation
NASA Logo - Jet Propulsion Laboratory				+ View the NASA Portal
+ Center for Near-Earth Object Studies			
JPL Home	Earth	Solar System	Stars & Galaxies	Technology

JPL Solar System Dynamics
BODIES		ORBITS		EPHEMERIDES		TOOLS		PHYSICAL DATA		DISCOVERY		FAQ		SITE MAP

IMPORTANT: The SSD Announcement email list is now available. Major changes are coming in the near future, including possible hostname and/or URL changes. To be notified of such changes, subscribe to this email list.

Please visit this page for more details.


Don't show this message again
HORIZONS Web-Interface
This tool provides a web-based limited interface to JPL's HORIZONS system which can be used to generate ephemerides for solar-system bodies. Full access to HORIZONS features is available via the primary telnet interface. HORIZONS system news shows recent changes and improvements. A web-interface tutorial is available to assist new users.
Current Settings
Ephemeris Type [change] : 	ELEMENTS
Target Body [change] : 	31 Euphrosyne
Center [change] : 	Solar System Barycenter (SSB) [500@0]
Time Span [change] : 	Start=JD 2458850.0, Stop=JD 2464329.0, Intervals=500
Table Settings [change] : 	CSV format=YES
Display/Output [change] : 	default (formatted HTML)
Object Data Page
JPL/HORIZONS                    31 Euphrosyne              2020-May-15 20:00:02
Rec #:      31 (+COV) Soln.date: 2020-Feb-22_15:15:17   # obs: 2388 (1860-2020)
 
IAU76/J2000 helio. ecliptic osc. elements (au, days, deg., period=Julian yrs):
 
  EPOCH=  2452944.5 ! 2003-Nov-01.00 (TDB)         Residual RMS= .30701
   EC= .2266615976794727   QR= 2.434785320665617   TP= 2451977.5345922001
   OM= 31.25708411313698   W=  62.0828368470462    IN= 26.31756550607503
   A= 3.148408657011793    MA= 170.5997400162275   ADIST= 3.862031993357969
   PER= 5.58657            N= .176427961           ANGMOM= .02972858
   DAN= 2.70012            DDN= 3.34124            L= 90.66863619999999
   B= 23.0635462           MOID= 1.54877996        TP= 2001-Mar-09.0345922001
 
Asteroid physical parameters (km, seconds, rotational period in hours):
   GM= n.a.                RAD= 133.54             ROTPER= 5.53
   H= 6.8                  G= .150                 B-V= .687
                           ALBEDO= .053            STYP= Cb
 
ASTEROID comments: 
1: soln ref.= JPL#98, OCC=0
2: source=ORB
Results
*******************************************************************************
Ephemeris / WWW_USER Fri May 15 20:00:02 2020 Pasadena, USA      / Horizons    
*******************************************************************************
Target body name: 31 Euphrosyne                   {source: JPL#98}
Center body name: Solar System Barycenter (0)     {source: DE431}
Center-site name: BODY CENTER
*******************************************************************************
Start time      : A.D. 2020-Jan-01 12:00:00.0000 TDB
Stop  time      : A.D. 2035-Jan-01 12:00:00.0000 TDB
Step-size       : 500 steps
*******************************************************************************
Center geodetic : 0.00000000,0.00000000,0.0000000 {E-lon(deg),Lat(deg),Alt(km)}
Center cylindric: 0.00000000,0.00000000,0.0000000 {E-lon(deg),Dxy(km),Dz(km)}
Center radii    : (undefined)                                                  
Keplerian GM    : 2.9630927492415936E-04 au^3/d^2
Small perturbers: Yes                             {source: SB431-N16}
Output units    : AU-D, deg, Julian Day Number (Tp)                            
Output type     : GEOMETRIC osculating elements
Output format   : 10
Reference frame : ICRF/J2000.0                                                 
Coordinate systm: Ecliptic and Mean Equinox of Reference Epoch                 
*******************************************************************************
Initial IAU76/J2000 heliocentric ecliptic osculating elements (au, days, deg.):
  EPOCH=  2452944.5 ! 2003-Nov-01.00 (TDB)         Residual RMS= .30701        
   EC= .2266615976794727   QR= 2.434785320665617   TP= 2451977.5345922001      
   OM= 31.25708411313698   W=  62.0828368470462    IN= 26.31756550607503       
  Equivalent ICRF heliocentric equatorial cartesian coordinates (au, au/d):
   X=-3.569798702743150E-01  Y=-2.709935728825256E+00  Z=-2.719349587861514E+00
  VX= 7.447400431563280E-03 VY= 6.032570479612146E-04 VZ=-1.918267776551180E-03
Asteroid physical parameters (km, seconds, rotational period in hours):        
   GM= n.a.                RAD= 133.54             ROTPER= 5.53                
   H= 6.8                  G= .150                 B-V= .687                   
                           ALBEDO= .053            STYP= Cb                    
*******************************************************************************
            JDTDB,            Calendar Date (TDB),                     EC,                     QR,                     IN,                     OM,                      W,                     Tp,                      N,                     MA,                     TA,                      A,                     AD,                     PR,
**************************************************************************************************************************************************************************************************************************************************************************************************************************************************
$$SOE
2459923.884000000, A.D. 2022-Dec-10 09:12:57.6000,  2.119675184022930E-01,  2.467799274088111E+00,  2.632932436237509E+01,  3.089198810460818E+01,  6.262807500786442E+01,  2.460158684922160E+06,  1.779699528488476E-01,  3.182124909544076E+02,  2.984960496511526E+02,  3.131595881789972E+00,  3.795392489491833E+00,  2.022813369545325E+03,
2459934.842000000, A.D. 2022-Dec-21 08:12:28.8000,  2.117303445832775E-01,  2.468493265386765E+00,  2.632825048734500E+01,  3.089188618849439E+01,  6.256198760451673E+01,  2.460158505619218E+06,  1.779752239925957E-01,  3.201934172708048E+02,  3.011145956914178E+02,  3.131534048563349E+00,  3.794574831739933E+00,  2.022753459295981E+03,
2459945.800000000, A.D. 2023-Jan-01 07:12:00.0000,  2.115132248882800E-01,  2.469171286343786E+00,  2.632711787703003E+01,  3.089166367647734E+01,  6.249073245453976E+01,  2.460158301366922E+06,  1.779754290673332E-01,  3.221799780446475E+02,  3.037762317561454E+02,  3.131531642992911E+00,  3.793891999642036E+00,  2.022751128549333E+03,
2459956.758000000, A.D. 2023-Jan-12 06:11:31.2000,  2.113184793192648E-01,  2.469829672594868E+00,  2.632593743987357E+01,  3.089130913931344E+01,  6.241458944637233E+01,  2.460158073152945E+06,  1.779701830310164E-01,  3.241719053833988E+02,  3.064803713677395E+02,  3.131593181571037E+00,  3.793356690547207E+00,  2.022810753289273E+03,
2459967.716000000, A.D. 2023-Jan-23 05:11:02.4000,  2.111483741188668E-01,  2.470464674671854E+00,  2.632472009521307E+01,  3.089081363808467E+01,  6.233392956476214E+01,  2.460157822355629E+06,  1.779591285438477E-01,  3.261688386215732E+02,  3.092261865867158E+02,  3.131722866023619E+00,  3.792981057375384E+00,  2.022936406497961E+03,
2459978.674000000, A.D. 2023-Feb-03 04:10:33.6000,  2.110050782960519E-01,  2.471072546621464E+00,  2.632347660507418E+01,  3.089017067497433E+01,  6.224921604611631E+01,  2.460157550752728E+06,  1.779419409855684E-01,  3.281703234223306E+02,  3.120125972482085E+02,  3.131924526567075E+00,  3.792776506512686E+00,  2.023131803587536E+03,
2459989.632000000, A.D. 2023-Feb-14 03:10:04.8000,  2.108906141967489E-01,  2.471649640852042E+00,  2.632221748203777E+01,  3.088937612834204E+01,  6.216100399053376E+01,  2.460157260523351E+06,  1.779183347991751E-01,  3.301758122605152E+02,  3.148382625640842E+02,  3.132201549391150E+00,  3.792753457930258E+00,  2.023400232507511E+03,
2460000.590000000, A.D. 2023-Feb-25 02:09:36.0000,  2.108068040986667E-01,  2.472192506323099E+00,  2.632095296267671E+01,  3.088842821218237E+01,  6.206993809556908E+01,  2.460156954241493E+06,  1.778880708069466E-01,  3.321846667375144E+02,  3.177015756563252E+02,  3.132556792382911E+00,  3.792921078442723E+00,  2.023744472391804E+03,
2460011.548000000, A.D. 2023-Mar-08 01:09:07.2000,  2.107552137299280E-01,  2.472697984028512E+00,  2.631969301916229E+01,  3.088732748090988E+01,  6.197674901665760E+01,  2.460156634862652E+06,  1.778509648527825E-01,  3.341961614899606E+02,  3.206006607754297E+02,  3.132992484770597E+00,  3.793286985512682E+00,  2.024166696525896E+03,
2460022.506000000, A.D. 2023-Mar-19 00:08:38.4000,  2.107371000921190E-01,  2.473163299438329E+00,  2.631844728690060E+01,  3.088607678806662E+01,  6.188224762955996E+01,  2.460156305700101E+06,  1.778068953180499E-01,  3.362094907305540E+02,  3.235333742953350E+02,  3.133510139304641E+00,  3.793856979170952E+00,  2.024668387331405E+03,
2460033.464000000, A.D. 2023-Mar-29 23:08:09.6000,  2.107533686772693E-01,  2.473586160142792E+00,  2.631722486967212E+01,  3.088468109460464E+01,  6.178731498329106E+01,  2.460155970382739E+06,  1.777558069131182E-01,  3.382237790842505E+02,  3.264973120825697E+02,  3.134110507379940E+00,  3.794634854617088E+00,  2.025250292812978E+03,
2460044.422000000, A.D. 2023-Apr-09 22:07:40.8000,  2.108045339851389E-01,  2.473964856671502E+00,  2.631603417568781E+01,  3.088314721744072E+01,  6.169288775568302E+01,  2.460155632794688E+06,  1.776977130372939E-01,  3.402380961189701E+02,  3.294898236256296E+02,  3.134793550150624E+00,  3.795622243629746E+00,  2.025912398346094E+03,
2460055.380000000, A.D. 2023-Apr-20 21:07:12.0000,  2.108906822701064E-01,  2.474298349913122E+00,  2.631488284520216E+01,  3.088148361247152E+01,  6.159994165712540E+01,  2.460155297005534E+06,  1.776326988650496E-01,  3.422514726445089E+02,  3.325080306308922E+02,  3.135558400236829E+00,  3.796818450560536E+00,  2.026653889177790E+03,
2460066.338000000, A.D. 2023-May-01 20:06:43.2000,  2.110114424560178E-01,  2.474586343161590E+00,  2.631377772124994E+01,  3.087970018494136E+01,  6.150947218196460E+01,  2.460154967188992E+06,  1.775609233701099E-01,  3.442629193650914E+02,  3.355488508852520E+02,  3.136403335004823E+00,  3.798220326848055E+00,  2.027473123968905E+03,
